YAOGAN-43 01D           
1 60461U 24148D   26068.43560480  .00010676  00000+0  37766-3 0  9999
2 60461  35.0010  61.7102 0002556 326.2473  33.8080 15.28369377 87008
STARLINK-33852          
1 63644U 25083L   26068.16408484  .00026537  00000+0  96972-3 0  9996
2 63644  43.0055   8.4238 0001525 247.8898 112.1791 15.27602555 50012
