[{"OBJECT_NAME":"YAOGAN-43 01D","OBJECT_ID":"2024-148D","EPOCH":"2026-03-09T10:27:16.254720","MEAN_MOTION":15.28369377,"ECCENTRICITY":0.00025569,"INCLINATION":35.001,"RA_OF_ASC_NODE":61.7102,"ARG_OF_PERICENTER":326.2473,"MEAN_ANOMALY":33.808,"EPHEMERIS_TYPE":0,"CLASSIFICATION_TYPE":"U","NORAD_CAT_ID":60461,"ELEMENT_SET_NO":999,"REV_AT_EPOCH":8700,"BSTAR":0.00037765912,"MEAN_MOTION_DOT":0.00010676,"MEAN_MOTION_DDOT":0},{"OBJECT_NAME":"STARLINK-33852","OBJECT_ID":"2025-083L","EPOCH":"2026-03-09T03:56:16.930176","MEAN_MOTION":15.27602555,"ECCENTRICITY":0.00015254,"INCLINATION":43.0055,"RA_OF_ASC_NODE":8.4238,"ARG_OF_PERICENTER":247.8898,"MEAN_ANOMALY":112.1791,"EPHEMERIS_TYPE":0,"CLASSIFICATION_TYPE":"U","NORAD_CAT_ID":63644,"ELEMENT_SET_NO":999,"REV_AT_EPOCH":5001,"BSTAR":0.00096971681,"MEAN_MOTION_DOT":0.00026537,"MEAN_MOTION_DDOT":0}]
